start=new Date('2021-08-22T00:00:00.000Z').valueOf();
sats=[{"TLE_LINE2":"2 45215  53.0540 283.4600 0000386 125.2319 234.8706 15.06401012 84696","GP_ID":"183212639","APOAPSIS":"547.478","SEMIMAJOR_AXIS":"6925.345","MEAN_MOTION_DOT":"0.00001313","CLASSIFICATION_TYPE":"U","EPHEMERIS_TYPE":"0","MEAN_MOTION_DDOT":"0.0000000000000","OBJECT_ID":"2020-012AP","RCS_SIZE":"LARGE","ARG_OF_PERICENTER":"125.2319","COUNTRY_CODE":"US","LAUNCH_DATE":"2020-02-17","ELEMENT_SET_NO":"999","REV_AT_EPOCH":"8469","SITE":"AFETR","MEAN_ANOMALY":"234.8706","BSTAR":"0.00010702000000","TIME_SYSTEM":"UTC","INCLINATION":"53.0540","ECCENTRICITY":"0.00003860","OBJECT_TYPE":"PAYLOAD","NORAD_CAT_ID":"45215","MEAN_MOTION":"15.06401012","TLE_LINE1":"1 45215U 20012AP  21233.61797813  .00001313  00000-0  10702-3 0  9996","EPOCH":"2021-08-21T14:49:53.310432","OBJECT_NAME":"STARLINK-1245","CENTER_NAME":"EARTH","MEAN_ELEMENT_THEORY":"SGP4","RA_OF_ASC_NODE":"283.4600","PERIOD":"95.592","PERIAPSIS":"546.943","REF_FRAME":"TEME","DECAY_DATE":null,"FILE":"3101032"},{"TIME_SYSTEM":"UTC","INCLINATION":"53.0539","SITE":"AFETR","MEAN_ANOMALY":"254.8217","BSTAR":"0.00005369800000","NORAD_CAT_ID":"45216","ECCENTRICITY":"0.00002650","OBJECT_TYPE":"PAYLOAD","CENTER_NAME":"EARTH","TLE_LINE1":"1 45216U 20012AQ  21233.84282842  .00000519  00000-0  53698-4 0  9992","OBJECT_NAME":"STARLINK-1254","MEAN_MOTION":"15.06388247","EPOCH":"2021-08-21T20:13:40.375488","REF_FRAME":"TEME","DECAY_DATE":null,"FILE":"3101176","MEAN_ELEMENT_THEORY":"SGP4","RA_OF_ASC_NODE":"282.4495","PERIOD":"95.593","PERIAPSIS":"547.066","APOAPSIS":"547.433","SEMIMAJOR_AXIS":"6925.385","MEAN_MOTION_DOT":"0.00000519","TLE_LINE2":"2 45216  53.0539 282.4495 0000265 105.2801 254.8217 15.06388247 83856","GP_ID":"183219172","MEAN_MOTION_DDOT":"0.0000000000000","OBJECT_ID":"2020-012AQ","RCS_SIZE":"LARGE","CLASSIFICATION_TYPE":"U","EPHEMERIS_TYPE":"0","ELEMENT_SET_NO":"999","ARG_OF_PERICENTER":"105.2801","COUNTRY_CODE":"US","LAUNCH_DATE":"2020-02-17","REV_AT_EPOCH":"8385"},{"ELEMENT_SET_NO":"999","ARG_OF_PERICENTER":"98.1980","LAUNCH_DATE":"2020-02-17","COUNTRY_CODE":"US","REV_AT_EPOCH":"8385","APOAPSIS":"547.765","MEAN_MOTION_DOT":"-0.00000986","SEMIMAJOR_AXIS":"6925.366","TLE_LINE2":"2 45217  53.0542 282.3878 0000771  98.1980 261.9096 15.06394230 83858","GP_ID":"183218673","OBJECT_ID":"2020-012AR","MEAN_MOTION_DDOT":"0.0000000000000","RCS_SIZE":"LARGE","EPHEMERIS_TYPE":"0","CLASSIFICATION_TYPE":"U","CENTER_NAME":"EARTH","TLE_LINE1":"1 45217U 20012AR  21233.85757045 -.00000986  00000-0 -47320-4 0  9991","OBJECT_NAME":"STARLINK-1271","MEAN_MOTION":"15.06394230","EPOCH":"2021-08-21T20:34:54.086880","REF_FRAME":"TEME","DECAY_DATE":null,"FILE":"3101176","RA_OF_ASC_NODE":"282.3878","MEAN_ELEMENT_THEORY":"SGP4","PERIAPSIS":"546.697","PERIOD":"95.593","INCLINATION":"53.0542","TIME_SYSTEM":"UTC","BSTAR":"-0.00004732000000","SITE":"AFETR","MEAN_ANOMALY":"261.9096","NORAD_CAT_ID":"45217","ECCENTRICITY":"0.00007710","OBJECT_TYPE":"PAYLOAD"},{"PERIOD":"95.592","PERIAPSIS":"546.809","MEAN_ELEMENT_THEORY":"SGP4","RA_OF_ASC_NODE":"262.6938","DECAY_DATE":null,"FILE":"3101032","REF_FRAME":"TEME","MEAN_MOTION":"15.06408734","TLE_LINE1":"1 45219U 20012AT  21233.78936382  .00000819  00000-0  73827-4 0  9992","EPOCH":"2021-08-21T18:56:41.034048","OBJECT_NAME":"STARLINK-1187","CENTER_NAME":"EARTH","OBJECT_TYPE":"PAYLOAD","ECCENTRICITY":"0.00005450","NORAD_CAT_ID":"45219","SITE":"AFETR","MEAN_ANOMALY":"299.4008","BSTAR":"0.00007382700000","TIME_SYSTEM":"UTC","INCLINATION":"53.0537","REV_AT_EPOCH":"8507","COUNTRY_CODE":"US","LAUNCH_DATE":"2020-02-17","ARG_OF_PERICENTER":"60.7036","ELEMENT_SET_NO":"999","CLASSIFICATION_TYPE":"U","EPHEMERIS_TYPE":"0","RCS_SIZE":"LARGE","MEAN_MOTION_DDOT":"0.0000000000000","OBJECT_ID":"2020-012AT","GP_ID":"183212402","TLE_LINE2":"2 45219  53.0537 262.6938 0000545  60.7036 299.4008 15.06408734 85078","SEMIMAJOR_AXIS":"6925.322","MEAN_MOTION_DOT":"0.00000819","APOAPSIS":"547.564"},{"CENTER_NAME":"EARTH","TLE_LINE1":"1 45220U 20012AU  21233.87401658  .00332361  00000-0  13052-1 0  9998","MEAN_MOTION":"15.23751183","EPOCH":"2021-08-21T20:58:35.032512","OBJECT_NAME":"STARLINK-1188","REF_FRAME":"TEME","FILE":"3101147","DECAY_DATE":null,"MEAN_ELEMENT_THEORY":"SGP4","RA_OF_ASC_NODE":"261.7295","PERIOD":"94.504","PERIAPSIS":"493.191","TIME_SYSTEM":"UTC","INCLINATION":"53.0531","MEAN_ANOMALY":"290.7477","SITE":"AFETR","BSTAR":"0.01305200000000","NORAD_CAT_ID":"45220","ECCENTRICITY":"0.00019630","OBJECT_TYPE":"PAYLOAD","ELEMENT_SET_NO":"999","ARG_OF_PERICENTER":"69.3730","COUNTRY_CODE":"US","LAUNCH_DATE":"2020-02-17","REV_AT_EPOCH":"8414","APOAPSIS":"495.889","SEMIMAJOR_AXIS":"6872.675","MEAN_MOTION_DOT":"0.00332361","TLE_LINE2":"2 45220  53.0531 261.7295 0001963  69.3730 290.7477 15.23751183 84140","GP_ID":"183218585","MEAN_MOTION_DDOT":"0.0000000000000","OBJECT_ID":"2020-012AU","RCS_SIZE":"LARGE","CLASSIFICATION_TYPE":"U","EPHEMERIS_TYPE":"0"},{"ARG_OF_PERICENTER":"68.8524","COUNTRY_CODE":"US","LAUNCH_DATE":"2020-02-17","ELEMENT_SET_NO":"999","REV_AT_EPOCH":"8506","TLE_LINE2":"2 45221  53.0542 262.6768 0001156  68.8524 291.2588 15.06386065 85062","GP_ID":"183211404","APOAPSIS":"548.057","SEMIMAJOR_AXIS":"6925.391","MEAN_MOTION_DOT":"0.00000260","CLASSIFICATION_TYPE":"U","EPHEMERIS_TYPE":"0","MEAN_MOTION_DDOT":"0.0000000000000","OBJECT_ID":"2020-012AV","RCS_SIZE":"LARGE","MEAN_MOTION":"15.06386065","TLE_LINE1":"1 45221U 20012AV  21233.79306891  .00000260  00000-0  36321-4 0  9990","EPOCH":"2021-08-21T19:02:01.153824","OBJECT_NAME":"STARLINK-1189","CENTER_NAME":"EARTH","MEAN_ELEMENT_THEORY":"SGP4","RA_OF_ASC_NODE":"262.6768","PERIOD":"95.593","PERIAPSIS":"546.456","REF_FRAME":"TEME","FILE":"3101032","DECAY_DATE":null,"SITE":"AFETR","MEAN_ANOMALY":"291.2588","BSTAR":"0.00003632100000","TIME_SYSTEM":"UTC","INCLINATION":"53.0542","ECCENTRICITY":"0.00011560","OBJECT_TYPE":"PAYLOAD","NORAD_CAT_ID":"45221"},{"SEMIMAJOR_AXIS":"6925.368","MEAN_MOTION_DOT":"0.00000490","APOAPSIS":"547.636","GP_ID":"183211652","TLE_LINE2":"2 45222  53.0544 262.6472 0000582  21.8115 338.2899 15.06393659 85068","RCS_SIZE":"LARGE","MEAN_MOTION_DDOT":"0.0000000000000","OBJECT_ID":"2020-012AW","CLASSIFICATION_TYPE":"U","EPHEMERIS_TYPE":"0","ELEMENT_SET_NO":"999","COUNTRY_CODE":"US","LAUNCH_DATE":"2020-02-17","ARG_OF_PERICENTER":"21.8115","REV_AT_EPOCH":"8506","TIME_SYSTEM":"UTC","INCLINATION":"53.0544","SITE":"AFETR","MEAN_ANOMALY":"338.2899","BSTAR":"0.00005174500000","NORAD_CAT_ID":"45222","OBJECT_TYPE":"PAYLOAD","ECCENTRICITY":"0.00005820","CENTER_NAME":"EARTH","TLE_LINE1":"1 45222U 20012AW  21233.80044141  .00000490  00000-0  51745-4 0  9992","MEAN_MOTION":"15.06393659","OBJECT_NAME":"STARLINK-1191","EPOCH":"2021-08-21T19:12:38.137824","DECAY_DATE":null,"FILE":"3101032","REF_FRAME":"TEME","PERIOD":"95.593","PERIAPSIS":"546.830","MEAN_ELEMENT_THEORY":"SGP4","RA_OF_ASC_NODE":"262.6472"},{"RCS_SIZE":"LARGE","MEAN_MOTION_DDOT":"0.0000000000000","OBJECT_ID":"2020-012AX","CLASSIFICATION_TYPE":"U","EPHEMERIS_TYPE":"0","SEMIMAJOR_AXIS":"6925.371","MEAN_MOTION_DOT":"0.00000339","APOAPSIS":"547.577","GP_ID":"183212903","TLE_LINE2":"2 45223  53.0538 262.5553 0000492  93.8154 266.2891 15.06392549 85073","REV_AT_EPOCH":"8507","ELEMENT_SET_NO":"999","COUNTRY_CODE":"US","LAUNCH_DATE":"2020-02-17","ARG_OF_PERICENTER":"93.8154","NORAD_CAT_ID":"45223","OBJECT_TYPE":"PAYLOAD","ECCENTRICITY":"0.00004920","TIME_SYSTEM":"UTC","INCLINATION":"53.0538","SITE":"AFETR","MEAN_ANOMALY":"266.2891","BSTAR":"0.00004163100000","FILE":"3101032","DECAY_DATE":null,"REF_FRAME":"TEME","PERIOD":"95.593","PERIAPSIS":"546.896","MEAN_ELEMENT_THEORY":"SGP4","RA_OF_ASC_NODE":"262.5553","CENTER_NAME":"EARTH","MEAN_MOTION":"15.06392549","TLE_LINE1":"1 45223U 20012AX  21233.82255738  .00000339  00000-0  41631-4 0  9996","OBJECT_NAME":"STARLINK-1212","EPOCH":"2021-08-21T19:44:28.957632"},{"REV_AT_EPOCH":"8462","ELEMENT_SET_NO":"999","COUNTRY_CODE":"US","LAUNCH_DATE":"2020-02-17","ARG_OF_PERICENTER":"279.3979","RCS_SIZE":"LARGE","MEAN_MOTION_DDOT":"0.0000000000000","OBJECT_ID":"2020-012AY","CLASSIFICATION_TYPE":"U","EPHEMERIS_TYPE":"0","SEMIMAJOR_AXIS":"6742.745","MEAN_MOTION_DOT":"-0.00024176","APOAPSIS":"369.532","GP_ID":"183219141","TLE_LINE2":"2 45224  53.0501 227.0674 0007300 279.3979  80.6211 15.68005786 84621","FILE":"3101151","DECAY_DATE":null,"REF_FRAME":"TEME","PERIOD":"91.836","PERIAPSIS":"359.688","MEAN_ELEMENT_THEORY":"SGP4","RA_OF_ASC_NODE":"227.0674","CENTER_NAME":"EARTH","TLE_LINE1":"1 45224U 20012AY  21233.98234121 -.00024176  00000-0 -20916-3 0  9996","MEAN_MOTION":"15.68005786","OBJECT_NAME":"STARLINK-1214","EPOCH":"2021-08-21T23:34:34.280544","NORAD_CAT_ID":"45224","OBJECT_TYPE":"PAYLOAD","ECCENTRICITY":"0.00073000","TIME_SYSTEM":"UTC","INCLINATION":"53.0501","MEAN_ANOMALY":"80.6211","SITE":"AFETR","BSTAR":"-0.00020916000000"},{"LAUNCH_DATE":"2020-02-17","COUNTRY_CODE":"US","ARG_OF_PERICENTER":"51.9966","ELEMENT_SET_NO":"999","REV_AT_EPOCH":"8501","GP_ID":"183211905","TLE_LINE2":"2 45225  53.0533 262.7546 0000237  51.9966 308.1044 15.06404474 85018","MEAN_MOTION_DOT":"0.00000302","SEMIMAJOR_AXIS":"6925.335","APOAPSIS":"547.364","EPHEMERIS_TYPE":"0","CLASSIFICATION_TYPE":"U","RCS_SIZE":"LARGE","OBJECT_ID":"2020-012AZ","MEAN_MOTION_DDOT":"0.0000000000000","OBJECT_NAME":"STARLINK-1215","TLE_LINE1":"1 45225U 20012AZ  21233.77462573  .00000302  00000-0  39158-4 0  9990","MEAN_MOTION":"15.06404474","EPOCH":"2021-08-21T18:35:27.663072","CENTER_NAME":"EARTH","PERIAPSIS":"547.036","PERIOD":"95.592","RA_OF_ASC_NODE":"262.7546","MEAN_ELEMENT_THEORY":"SGP4","FILE":"3101032","DECAY_DATE":null,"REF_FRAME":"TEME","BSTAR":"0.00003915800000","MEAN_ANOMALY":"308.1044","SITE":"AFETR","INCLINATION":"53.0533","TIME_SYSTEM":"UTC","OBJECT_TYPE":"PAYLOAD","ECCENTRICITY":"0.00002370","NORAD_CAT_ID":"45225"}];
